id,name,address,city,state,zip,county,type,phone,latitude,longitude,status
"1","Birmingham Volunteer Fire Department","5879 Main Street","Birmingham","AL","47011","Birmingham County","Volunteer","","33.757109","-88.364249","OPEN"
"2","Birmingham Volunteer Fire Department - Station 2","7100 Main Street","Birmingham","AL","19647","Birmingham County","Combination","","32.305234","-85.76667","OPEN"
"3","Montgomery Fire District","2424 Main Street","Montgomery","AL","89187","Montgomery County","Paid","","33.656251","-85.742576","OPEN"
"4","Montgomery Volunteer Fire Department - Station 2","1463 Main Street","Montgomery","AL","48703","Montgomery County","Paid","","30.787711","-88.304731","OPEN"
"5","Huntsville Fire-Rescue","9059 Main Street","Huntsville","AL","15990","Huntsville County","Career","","31.741339","-87.001781","OPEN"
"6","Mobile Fire Department","1471 Main Street","Mobile","AL","58759","Mobile County","Career","","31.341242","-86.777815","OPEN"
"7","Mobile Fire-Rescue - Station 2","5059 Main Street","Mobile","AL","75890","Mobile County","Volunteer","","30.368959","-86.438596","OPEN"
"8","Mobile Volunteer Fire Department - Station 3","6433 Main Street","Mobile","AL","35899","Mobile County","Combination","","34.211064","-85.417334","OPEN"
"9","Tuscaloosa Fire District","125 Main Street","Tuscaloosa","AL","47107","Tuscaloosa County","Career","","30.899317","-87.1201","OPEN"
"10","Anchorage Volunteer Fire Department","1937 Main Street","Anchorage","AK","29720","Anchorage County","Volunteer","","55.92735","-135.636878","OPEN"
"11","Anchorage Fire-Rescue - Station 2","6077 Main Street","Anchorage","AK","76067","Anchorage County","Volunteer","","60.617457","-168.544842","OPEN"
"12","Fairbanks Fire Protection District","7695 Main Street","Fairbanks","AK","86433","Fairbanks County","Career","","61.283243","-158.220788","OPEN"
"13","Fairbanks Fire District - Station 2","2229 Main Street","Fairbanks","AK","87810","Fairbanks County","Volunteer","","57.490251","-148.762514","OPEN"
"14","Juneau Fire District","8779 Main Street","Juneau","AK","78603","Juneau County","Career","","57.570147","-172.231634","OPEN"
"15","Juneau Fire Protection District - Station 2","3850 Main Street","Juneau","AK","28523","Juneau County","Combination","","58.763038","-136.020954","OPEN"
"16","Sitka Fire District","3318 Main Street","Sitka","AK","26335","Sitka County","Combination","","64.22785","-144.973344","OPEN"
"17","Ketchikan Volunteer Fire Department","2657 Main Street","Ketchikan","AK","94314","Ketchikan County","Career","","63.516003","-167.519463","OPEN"
"18","Ketchikan Fire-Rescue - Station 2","8970 Main Street","Ketchikan","AK","18569","Ketchikan County","Paid","","62.591083","-149.207555","OPEN"
"19","Phoenix Fire Department","564 Main Street","Phoenix","AZ","21256","Phoenix County","Paid","","36.638821","-109.421978","OPEN"
"20","Tucson Fire Department","737 Main Street","Tucson","AZ","48330","Tucson County","Volunteer","","36.809387","-112.405584","OPEN"
"21","Tucson Fire Department - Station 2","2710 Main Street","Tucson","AZ","26452","Tucson County","Volunteer","","32.920776","-112.521999","OPEN"
"22","Tucson Fire Department - Station 3","7696 Main Street","Tucson","AZ","88864","Tucson County","Career","","31.731454","-109.195953","OPEN"
"23","Mesa Fire Protection District","4327 Main Street","Mesa","AZ","28928","Mesa County","Combination","","35.979914","-111.998605","OPEN"
"24","Chandler Fire-Rescue","4277 Main Street","Chandler","AZ","43903","Chandler County","Paid","","36.825477","-113.720246","OPEN"
"25","Chandler Fire District - Station 2","8933 Main Street","Chandler","AZ","44792","Chandler County","Career","","36.250052","-110.00081","OPEN"
"26","Chandler Fire Department - Station 3","5403 Main Street","Chandler","AZ","53864","Chandler County","Combination","","36.117174","-113.97475","OPEN"
"27","Scottsdale Fire District","4702 Main Street","Scottsdale","AZ","64462","Scottsdale County","Volunteer","","35.488298","-110.756606","OPEN"
"28","Little Rock Fire District","647 Main Street","Little Rock","AR","90405","Little Rock County","Paid","","34.957348","-90.219462","OPEN"
"29","Fort Smith Fire District","1554 Main Street","Fort Smith","AR","55449","Fort Smith County","Volunteer","","34.261766","-93.810223","OPEN"
"30","Fort Smith Fire Protection District - Station 2","6449 Main Street","Fort Smith","AR","65623","Fort Smith County","Volunteer","","35.585151","-90.143425","OPEN"
"31","Fayetteville Fire-Rescue","4905 Main Street","Fayetteville","AR","11686","Fayetteville County","Volunteer","","33.081139","-92.667112","OPEN"
"32","Springdale Volunteer Fire Department","570 Main Street","Springdale","AR","36008","Springdale County","Career","","35.368421","-93.061047","OPEN"
"33","Jonesboro Fire Protection District","9000 Main Street","Jonesboro","AR","44746","Jonesboro County","Career","","35.414248","-93.68886","OPEN"
"34","Jonesboro Fire Protection District - Station 2","8498 Main Street","Jonesboro","AR","72459","Jonesboro County","Combination","","34.84291","-94.564385","OPEN"
"35","Jonesboro Volunteer Fire Department - Station 3","6983 Main Street","Jonesboro","AR","86531","Jonesboro County","Paid","","34.63664","-90.511468","OPEN"
"36","Los Angeles Fire District","3398 Main Street","Los Angeles","CA","25827","Los Angeles County","Paid","","33.980743","-120.993733","OPEN"
"37","Los Angeles Fire Protection District - Station 2","6710 Main Street","Los Angeles","CA","35457","Los Angeles County","Paid","","38.405141","-117.542039","OPEN"
"38","Los Angeles Fire-Rescue - Station 3","1655 Main Street","Los Angeles","CA","32741","Los Angeles County","Combination","","33.62121","-120.788874","OPEN"
"39","San Diego Fire District","8473 Main Street","San Diego","CA","62771","San Diego County","Paid","","41.156996","-124.180566","OPEN"
"40","San Diego Fire District - Station 2","7325 Main Street","San Diego","CA","92658","San Diego County","Volunteer","","33.839672","-123.479261","OPEN"
"41","San Diego Volunteer Fire Department - Station 3","5784 Main Street","San Diego","CA","42937","San Diego County","Career","","38.419617","-118.68759","OPEN"
"42","San Francisco Volunteer Fire Department","9369 Main Street","San Francisco","CA","27982","San Francisco County","Paid","","34.108384","-122.277816","OPEN"
"43","San Francisco Fire-Rescue - Station 2","4832 Main Street","San Francisco","CA","71835","San Francisco County","Combination","","40.393645","-121.741448","OPEN"
"44","San Francisco Volunteer Fire Department - Station 3","5621 Main Street","San Francisco","CA","88869","San Francisco County","Combination","","36.315766","-122.684513","OPEN"
"45","San Jose Volunteer Fire Department","5697 Main Street","San Jose","CA","76327","San Jose County","Combination","","36.59201","-115.9483","OPEN"
"46","San Jose Fire-Rescue - Station 2","3238 Main Street","San Jose","CA","95720","San Jose County","Paid","","34.729988","-121.401103","OPEN"
"47","San Jose Volunteer Fire Department - Station 3","4071 Main Street","San Jose","CA","69425","San Jose County","Combination","","41.863862","-121.844486","OPEN"
"48","Sacramento Fire-Rescue","1005 Main Street","Sacramento","CA","25633","Sacramento County","Combination","","34.660345","-114.731425","OPEN"
"49","Oakland Fire Protection District","3014 Main Street","Oakland","CA","99589","Oakland County","Combination","","36.273941","-114.294142","OPEN"
"50","Fresno Fire-Rescue","942 Main Street","Fresno","CA","77180","Fresno County","Volunteer","","35.468166","-120.96598","OPEN"
"51","Fresno Fire Department - Station 2","1331 Main Street","Fresno","CA","46614","Fresno County","Volunteer","","41.174878","-121.600818","OPEN"
"52","Fresno Fire Department - Station 3","8457 Main Street","Fresno","CA","92909","Fresno County","Combination","","41.135965","-120.299478","OPEN"
"53","Long Beach Fire District","1852 Main Street","Long Beach","CA","96250","Long Beach County","Volunteer","","38.151063","-116.607078","OPEN"
"54","Denver Fire Protection District","1575 Main Street","Denver","CO","64981","Denver County","Career","","38.015243","-106.784819","OPEN"
"55","Denver Fire District - Station 2","6739 Main Street","Denver","CO","67921","Denver County","Volunteer","","37.110138","-107.267559","OPEN"
"56","Colorado Springs Fire-Rescue","4961 Main Street","Colorado Springs","CO","99081","Colorado Springs County","Paid","","40.373404","-106.431773","OPEN"
"57","Colorado Springs Fire District - Station 2","2694 Main Street","Colorado Springs","CO","61163","Colorado Springs County","Career","","38.801233","-104.799057","OPEN"
"58","Colorado Springs Fire Protection District - Station 3","5363 Main Street","Colorado Springs","CO","51574","Colorado Springs County","Career","","37.698818","-107.269317","OPEN"
"59","Aurora Fire-Rescue","7717 Main Street","Aurora","CO","50788","Aurora County","Paid","","38.216088","-106.719344","OPEN"
"60","Aurora Fire Protection District - Station 2","6155 Main Street","Aurora","CO","77600","Aurora County","Career","","40.724161","-106.690451","OPEN"
"61","Aurora Fire Department - Station 3","2277 Main Street","Aurora","CO","81357","Aurora County","Volunteer","","37.471362","-103.757708","OPEN"
"62","Fort Collins Fire District","6401 Main Street","Fort Collins","CO","49215","Fort Collins County","Combination","","40.828084","-103.691508","OPEN"
"63","Fort Collins Fire District - Station 2","2650 Main Street","Fort Collins","CO","65614","Fort Collins County","Career","","38.115845","-102.778245","OPEN"
"64","Fort Collins Fire Protection District - Station 3","315 Main Street","Fort Collins","CO","16591","Fort Collins County","Volunteer","","40.867566","-108.317155","OPEN"
"65","Boulder Fire District","6827 Main Street","Boulder","CO","85976","Boulder County","Volunteer","","40.42461","-108.861386","OPEN"
"66","Boulder Fire Department - Station 2","8654 Main Street","Boulder","CO","27627","Boulder County","Paid","","39.375313","-108.489419","OPEN"
"67","Boulder Volunteer Fire Department - Station 3","9011 Main Street","Boulder","CO","34844","Boulder County","Volunteer","","38.725736","-103.004852","OPEN"
"68","Bridgeport Fire District","4755 Main Street","Bridgeport","CT","37136","Bridgeport County","Paid","","41.602362","-72.511206","OPEN"
"69","Bridgeport Fire District - Station 2","4651 Main Street","Bridgeport","CT","97813","Bridgeport County","Combination","","41.936916","-72.671192","OPEN"
"70","Bridgeport Fire District - Station 3","319 Main Street","Bridgeport","CT","61103","Bridgeport County","Combination","","41.185799","-71.97378","OPEN"
"71","New Haven Fire Department","4450 Main Street","New Haven","CT","42228","New Haven County","Paid","","41.865387","-73.196898","OPEN"
"72","New Haven Volunteer Fire Department - Station 2","9122 Main Street","New Haven","CT","83471","New Haven County","Paid","","41.065174","-72.857911","OPEN"
"73","New Haven Fire Protection District - Station 3","4038 Main Street","New Haven","CT","19900","New Haven County","Career","","41.274824","-72.92895","OPEN"
"74","Hartford Fire Department","5122 Main Street","Hartford","CT","31366","Hartford County","Career","","41.210543","-72.25552","OPEN"
"75","Hartford Fire Protection District - Station 2","8968 Main Street","Hartford","CT","46592","Hartford County","Combination","","41.560974","-72.456629","OPEN"
"76","Hartford Volunteer Fire Department - Station 3","3652 Main Street","Hartford","CT","34831","Hartford County","Career","","41.542051","-73.110013","OPEN"
"77","Stamford Volunteer Fire Department","2044 Main Street","Stamford","CT","48081","Stamford County","Combination","","41.169823","-71.972963","OPEN"
"78","Waterbury Volunteer Fire Department","7503 Main Street","Waterbury","CT","11244","Waterbury County","Paid","","41.910536","-72.251373","OPEN"
"79","Waterbury Fire-Rescue - Station 2","6704 Main Street","Waterbury","CT","97396","Waterbury County","Career","","42.036365","-72.993204","OPEN"
"80","Waterbury Fire Protection District - Station 3","5256 Main Street","Waterbury","CT","15054","Waterbury County","Paid","","41.820433","-72.48391","OPEN"
"81","Wilmington Fire Protection District","287 Main Street","Wilmington","DE","38038","Wilmington County","Combination","","38.62383","-75.114953","OPEN"
"82","Dover Volunteer Fire Department","3859 Main Street","Dover","DE","67979","Dover County","Volunteer","","39.195165","-75.271497","OPEN"
"83","Dover Fire Department - Station 2","1642 Main Street","Dover","DE","48566","Dover County","Career","","39.151566","-75.308461","OPEN"
"84","Dover Fire Department - Station 3","8007 Main Street","Dover","DE","46678","Dover County","Career","","39.553805","-75.633353","OPEN"
"85","Newark Volunteer Fire Department","1514 Main Street","Newark","DE","92986","Newark County","Career","","39.375395","-75.611157","OPEN"
"86","Newark Fire Protection District - Station 2","4095 Main Street","Newark","DE","63982","Newark County","Volunteer","","38.448095","-75.527904","OPEN"
"87","Newark Fire Protection District - Station 3","9797 Main Street","Newark","DE","46556","Newark County","Career","","39.532756","-75.282949","OPEN"
"88","Middletown Fire Department","5097 Main Street","Middletown","DE","78249","Middletown County","Career","","39.509472","-75.603959","OPEN"
"89","Middletown Fire Protection District - Station 2","1091 Main Street","Middletown","DE","77651","Middletown County","Career","","38.97055","-75.145023","OPEN"
"90","Smyrna Fire-Rescue","3689 Main Street","Smyrna","DE","91654","Smyrna County","Volunteer","","39.489353","-75.721644","OPEN"
"91","Jacksonville Fire Department","9899 Main Street","Jacksonville","FL","87916","Jacksonville County","Combination","","25.689672","-84.020525","OPEN"
"92","Jacksonville Fire Department - Station 2","1027 Main Street","Jacksonville","FL","50816","Jacksonville County","Paid","","27.539899","-82.75878","OPEN"
"93","Miami Fire-Rescue","2575 Main Street","Miami","FL","74451","Miami County","Combination","","26.332906","-80.763909","OPEN"
"94","Miami Fire Protection District - Station 2","2756 Main Street","Miami","FL","11305","Miami County","Combination","","29.726515","-84.853306","OPEN"
"95","Tampa Fire District","5595 Main Street","Tampa","FL","12098","Tampa County","Career","","28.812744","-80.828714","OPEN"
"96","Orlando Fire-Rescue","8490 Main Street","Orlando","FL","44198","Orlando County","Combination","","25.75244","-80.566532","OPEN"
"97","Orlando Volunteer Fire Department - Station 2","6836 Main Street","Orlando","FL","37419","Orlando County","Career","","25.458395","-87.058578","OPEN"
"98","St. Petersburg Fire Department","6285 Main Street","St. Petersburg","FL","68213","St. Petersburg County","Combination","","26.149331","-85.429299","OPEN"
"99","Hialeah Fire District","5836 Main Street","Hialeah","FL","27597","Hialeah County","Career","","29.329991","-81.877562","OPEN"
"100","Tallahassee Volunteer Fire Department","4890 Main Street","Tallahassee","FL","96787","Tallahassee County","Career","","30.963168","-86.70166","OPEN"
"101","Tallahassee Fire Protection District - Station 2","4552 Main Street","Tallahassee","FL","11494","Tallahassee County","Combination","","30.221411","-81.342704","OPEN"
"102","Atlanta Fire Department","587 Main Street","Atlanta","GA","70232","Atlanta County","Volunteer","","32.624719","-83.468406","OPEN"
"103","Augusta Fire Department","6111 Main Street","Augusta","GA","16179","Augusta County","Combination","","33.598467","-81.36173","OPEN"
"104","Columbus Volunteer Fire Department","8964 Main Street","Columbus","GA","43343","Columbus County","Career","","33.90816","-83.331741","OPEN"
"105","Columbus Fire Protection District - Station 2","3763 Main Street","Columbus","GA","86627","Columbus County","Career","","33.54637","-83.846967","OPEN"
"106","Savannah Fire Department","5107 Main Street","Savannah","GA","82560","Savannah County","Volunteer","","33.109953","-84.924097","OPEN"
"107","Athens Fire Department","5982 Main Street","Athens","GA","46950","Athens County","Paid","","33.394357","-81.095444","OPEN"
"108","Honolulu Fire District","4873 Main Street","Honolulu","HI","49614","Honolulu County","Paid","","19.854967","-159.068194","OPEN"
"109","Honolulu Fire Protection District - Station 2","6506 Main Street","Honolulu","HI","98057","Honolulu County","Volunteer","","20.235031","-158.612","OPEN"
"110","Pearl City Volunteer Fire Department","5711 Main Street","Pearl City","HI","30549","Pearl City County","Paid","","20.328895","-158.781282","OPEN"
"111","Hilo Fire Department","6334 Main Street","Hilo","HI","61982","Hilo County","Combination","","21.923832","-157.677419","OPEN"
"112","Kailua Fire District","5801 Main Street","Kailua","HI","30101","Kailua County","Paid","","22.090942","-155.189426","OPEN"
"113","Kailua Fire-Rescue - Station 2","6905 Main Street","Kailua","HI","64381","Kailua County","Career","","19.66601","-154.954333","OPEN"
"114","Kailua Fire District - Station 3","5166 Main Street","Kailua","HI","47473","Kailua County","Career","","20.85318","-158.142215","OPEN"
"115","Waipahu Fire Protection District","1563 Main Street","Waipahu","HI","94923","Waipahu County","Combination","","20.638795","-158.311117","OPEN"
"116","Boise Fire Department","5043 Main Street","Boise","ID","22613","Boise County","Combination","","42.236558","-113.112573","OPEN"
"117","Meridian Fire Protection District","1415 Main Street","Meridian","ID","67114","Meridian County","Career","","47.119696","-112.449003","OPEN"
"118","Meridian Fire District - Station 2","8845 Main Street","Meridian","ID","37505","Meridian County","Combination","","43.096096","-113.555864","OPEN"
"119","Nampa Fire Protection District","8246 Main Street","Nampa","ID","62025","Nampa County","Volunteer","","47.953251","-115.998838","OPEN"
"120","Nampa Fire District - Station 2","1819 Main Street","Nampa","ID","98068","Nampa County","Combination","","47.074044","-113.064516","OPEN"
"121","Nampa Volunteer Fire Department - Station 3","5618 Main Street","Nampa","ID","26733","Nampa County","Paid","","46.670379","-112.532485","OPEN"
"122","Idaho Falls Fire Protection District","1995 Main Street","Idaho Falls","ID","18226","Idaho Falls County","Volunteer","","43.698257","-114.214024","OPEN"
"123","Idaho Falls Fire Department - Station 2","5793 Main Street","Idaho Falls","ID","52040","Idaho Falls County","Career","","44.321419","-116.728852","OPEN"
"124","Idaho Falls Fire-Rescue - Station 3","9850 Main Street","Idaho Falls","ID","75678","Idaho Falls County","Volunteer","","46.641895","-113.886434","OPEN"
"125","Pocatello Fire-Rescue","8000 Main Street","Pocatello","ID","79370","Pocatello County","Combination","","46.555983","-113.303273","OPEN"
"126","Pocatello Fire District - Station 2","1997 Main Street","Pocatello","ID","61419","Pocatello County","Career","","47.087488","-112.733957","OPEN"
"127","Pocatello Fire District - Station 3","9772 Main Street","Pocatello","ID","32074","Pocatello County","Paid","","47.183662","-115.095162","OPEN"
"128","Chicago Fire Department","550 Main Street","Chicago","IL","68920","Chicago County","Combination","","41.954325","-90.414211","OPEN"
"129","Aurora Fire Department","7895 Main Street","Aurora","IL","84865","Aurora County","Paid","","41.976709","-90.185046","OPEN"
"130","Aurora Fire District - Station 2","4379 Main Street","Aurora","IL","91038","Aurora County","Paid","","42.486348","-88.497311","OPEN"
"131","Naperville Fire Protection District","5757 Main Street","Naperville","IL","51645","Naperville County","Paid","","41.841865","-91.186108","OPEN"
"132","Naperville Fire District - Station 2","1446 Main Street","Naperville","IL","34070","Naperville County","Career","","39.745726","-89.637067","OPEN"
"133","Naperville Fire Protection District - Station 3","9685 Main Street","Naperville","IL","73707","Naperville County","Combination","","41.463774","-91.310376","OPEN"
"134","Rockford Fire-Rescue","3260 Main Street","Rockford","IL","74955","Rockford County","Combination","","37.190291","-89.301066","OPEN"
"135","Rockford Fire Department - Station 2","368 Main Street","Rockford","IL","25080","Rockford County","Career","","37.344666","-87.692544","OPEN"
"136","Joliet Fire-Rescue","6460 Main Street","Joliet","IL","40985","Joliet County","Career","","41.381658","-91.056513","OPEN"
"137","Joliet Fire Protection District - Station 2","8720 Main Street","Joliet","IL","87686","Joliet County","Paid","","40.558954","-89.775554","OPEN"
"138","Joliet Fire Protection District - Station 3","2432 Main Street","Joliet","IL","75323","Joliet County","Career","","38.270814","-90.917213","OPEN"
"139","Springfield Fire Protection District","9832 Main Street","Springfield","IL","75794","Springfield County","Combination","","37.335924","-87.453441","OPEN"
"140","Springfield Fire Protection District - Station 2","717 Main Street","Springfield","IL","58949","Springfield County","Paid","","37.152157","-89.989448","OPEN"
"141","Indianapolis Fire Department","8752 Main Street","Indianapolis","IN","10576","Indianapolis County","Combination","","38.289876","-85.457429","OPEN"
"142","Indianapolis Fire District - Station 2","1621 Main Street","Indianapolis","IN","68853","Indianapolis County","Combination","","39.077958","-86.955159","OPEN"
"143","Indianapolis Volunteer Fire Department - Station 3","5595 Main Street","Indianapolis","IN","52728","Indianapolis County","Paid","","38.620747","-86.432389","OPEN"
"144","Fort Wayne Fire-Rescue","1949 Main Street","Fort Wayne","IN","99240","Fort Wayne County","Combination","","41.712166","-86.032633","OPEN"
"145","Fort Wayne Volunteer Fire Department - Station 2","4195 Main Street","Fort Wayne","IN","31443","Fort Wayne County","Paid","","40.259887","-86.184469","OPEN"
"146","Fort Wayne Fire Protection District - Station 3","4303 Main Street","Fort Wayne","IN","43554","Fort Wayne County","Paid","","39.444466","-86.486174","OPEN"
"147","Evansville Fire-Rescue","6103 Main Street","Evansville","IN","33118","Evansville County","Combination","","39.097602","-87.234252","OPEN"
"148","Evansville Fire Protection District - Station 2","4318 Main Street","Evansville","IN","48056","Evansville County","Volunteer","","41.093753","-85.510009","OPEN"
"149","South Bend Fire Department","2125 Main Street","South Bend","IN","41688","South Bend County","Paid","","38.564781","-86.452497","OPEN"
"150","South Bend Fire District - Station 2","7767 Main Street","South Bend","IN","19642","South Bend County","Combination","","39.294285","-85.771922","OPEN"
"151","Carmel Fire-Rescue","5548 Main Street","Carmel","IN","16518","Carmel County","Paid","","41.560719","-85.36639","OPEN"
"152","Des Moines Fire District","2374 Main Street","Des Moines","IA","24318","Des Moines County","Volunteer","","42.923823","-94.361183","OPEN"
"153","Des Moines Fire District - Station 2","780 Main Street","Des Moines","IA","10700","Des Moines County","Career","","41.340156","-91.30807","OPEN"
"154","Des Moines Fire Department - Station 3","4067 Main Street","Des Moines","IA","95532","Des Moines County","Career","","42.497997","-95.324117","OPEN"
"155","Cedar Rapids Fire-Rescue","8213 Main Street","Cedar Rapids","IA","70861","Cedar Rapids County","Volunteer","","42.163469","-93.690195","OPEN"
"156","Cedar Rapids Fire District - Station 2","5634 Main Street","Cedar Rapids","IA","60184","Cedar Rapids County","Career","","41.236978","-90.697158","OPEN"
"157","Davenport Fire Protection District","1265 Main Street","Davenport","IA","27148","Davenport County","Paid","","42.992623","-90.328793","OPEN"
"158","Davenport Fire District - Station 2","5376 Main Street","Davenport","IA","91847","Davenport County","Volunteer","","43.437274","-96.350543","OPEN"
"159","Davenport Fire Protection District - Station 3","8822 Main Street","Davenport","IA","67835","Davenport County","Combination","","41.863629","-94.153768","OPEN"
"160","Sioux City Volunteer Fire Department","8956 Main Street","Sioux City","IA","14236","Sioux City County","Combination","","41.135477","-93.797794","OPEN"
"161","Iowa City Fire Department","2144 Main Street","Iowa City","IA","10584","Iowa City County","Combination","","43.204982","-91.969134","OPEN"
"162","Wichita Fire-Rescue","9346 Main Street","Wichita","KS","82401","Wichita County","Volunteer","","38.889328","-100.393915","OPEN"
"163","Wichita Fire District - Station 2","3023 Main Street","Wichita","KS","49137","Wichita County","Paid","","39.34115","-97.121546","OPEN"
"164","Overland Park Volunteer Fire Department","4953 Main Street","Overland Park","KS","81726","Overland Park County","Volunteer","","39.523004","-95.062935","OPEN"
"165","Overland Park Fire Department - Station 2","8476 Main Street","Overland Park","KS","50942","Overland Park County","Volunteer","","38.897054","-96.777149","OPEN"
"166","Overland Park Volunteer Fire Department - Station 3","2572 Main Street","Overland Park","KS","67895","Overland Park County","Volunteer","","39.95668","-95.257881","OPEN"
"167","Kansas City Fire District","3965 Main Street","Kansas City","KS","43735","Kansas City County","Career","","39.300349","-101.408951","OPEN"
"168","Kansas City Volunteer Fire Department - Station 2","7901 Main Street","Kansas City","KS","94712","Kansas City County","Volunteer","","37.977182","-101.622938","OPEN"
"169","Olathe Fire-Rescue","9270 Main Street","Olathe","KS","23615","Olathe County","Combination","","39.364488","-97.023498","OPEN"
"170","Topeka Fire Protection District","8475 Main Street","Topeka","KS","27116","Topeka County","Paid","","38.573023","-100.496537","OPEN"
"171","Topeka Fire District - Station 2","4808 Main Street","Topeka","KS","64364","Topeka County","Paid","","38.252092","-100.584018","OPEN"
"172","Lawrence Fire-Rescue","8730 Main Street","Lawrence","KS","91906","Lawrence County","Volunteer","","37.071922","-95.348035","OPEN"
"173","Louisville Fire-Rescue","2073 Main Street","Louisville","KY","72884","Louisville County","Paid","","37.051624","-84.305536","OPEN"
"174","Louisville Fire Protection District - Station 2","5017 Main Street","Louisville","KY","66682","Louisville County","Volunteer","","36.588422","-86.64674","OPEN"
"175","Louisville Fire Department - Station 3","6046 Main Street","Louisville","KY","74346","Louisville County","Paid","","39.08569","-89.017521","OPEN"
"176","Lexington Fire-Rescue","3058 Main Street","Lexington","KY","13059","Lexington County","Volunteer","","38.263343","-82.023442","OPEN"
"177","Bowling Green Fire-Rescue","7384 Main Street","Bowling Green","KY","41768","Bowling Green County","Paid","","37.424433","-89.555138","OPEN"
"178","Bowling Green Volunteer Fire Department - Station 2","7816 Main Street","Bowling Green","KY","85011","Bowling Green County","Volunteer","","36.721469","-82.361968","OPEN"
"179","Bowling Green Fire Protection District - Station 3","9730 Main Street","Bowling Green","KY","26044","Bowling Green County","Combination","","38.179739","-88.623374","OPEN"
"180","Owensboro Fire-Rescue","4864 Main Street","Owensboro","KY","72745","Owensboro County","Volunteer","","39.087088","-82.103832","OPEN"
"181","Owensboro Fire Department - Station 2","9677 Main Street","Owensboro","KY","59096","Owensboro County","Volunteer","","38.388789","-83.841826","OPEN"
"182","Covington Fire Protection District","2057 Main Street","Covington","KY","38405","Covington County","Career","","37.290984","-84.597141","OPEN"
"183","Covington Fire Department - Station 2","8505 Main Street","Covington","KY","45355","Covington County","Career","","37.114699","-88.250209","OPEN"
"184","Covington Fire-Rescue - Station 3","6230 Main Street","Covington","KY","29636","Covington County","Paid","","37.670422","-87.800241","OPEN"
"185","New Orleans Fire-Rescue","7699 Main Street","New Orleans","LA","82789","New Orleans County","Combination","","31.116511","-90.751576","OPEN"
"186","Baton Rouge Fire Department","796 Main Street","Baton Rouge","LA","70707","Baton Rouge County","Career","","32.808719","-89.52336","OPEN"
"187","Baton Rouge Fire-Rescue - Station 2","5311 Main Street","Baton Rouge","LA","53480","Baton Rouge County","Volunteer","","29.801598","-93.727485","OPEN"
"188","Baton Rouge Fire-Rescue - Station 3","302 Main Street","Baton Rouge","LA","79928","Baton Rouge County","Career","","29.747854","-91.69247","OPEN"
"189","Shreveport Fire-Rescue","3527 Main Street","Shreveport","LA","94811","Shreveport County","Paid","","29.250375","-92.737553","OPEN"
"190","Shreveport Fire Protection District - Station 2","4118 Main Street","Shreveport","LA","17329","Shreveport County","Combination","","30.298028","-92.616347","OPEN"
"191","Shreveport Fire Department - Station 3","8190 Main Street","Shreveport","LA","26047","Shreveport County","Career","","32.449964","-90.574081","OPEN"
"192","Lafayette Fire-Rescue","9764 Main Street","Lafayette","LA","39174","Lafayette County","Career","","29.930716","-93.245992","OPEN"
"193","Lafayette Volunteer Fire Department - Station 2","6409 Main Street","Lafayette","LA","25376","Lafayette County","Career","","30.332132","-93.114416","OPEN"
"194","Lake Charles Fire-Rescue","3158 Main Street","Lake Charles","LA","34463","Lake Charles County","Combination","","31.572742","-91.966702","OPEN"
"195","Lake Charles Fire District - Station 2","8150 Main Street","Lake Charles","LA","16998","Lake Charles County","Career","","32.183657","-92.486397","OPEN"
"196","Lake Charles Volunteer Fire Department - Station 3","5368 Main Street","Lake Charles","LA","28810","Lake Charles County","Career","","30.626448","-90.430994","OPEN"
"197","Portland Fire Department","3904 Main Street","Portland","ME","24938","Portland County","Combination","","44.036726","-70.82423","OPEN"
"198","Portland Volunteer Fire Department - Station 2","2649 Main Street","Portland","ME","41111","Portland County","Paid","","44.601738","-68.908017","OPEN"
"199","Lewiston Fire Protection District","8567 Main Street","Lewiston","ME","66420","Lewiston County","Combination","","45.761234","-69.937129","OPEN"
"200","Lewiston Fire District - Station 2","8606 Main Street","Lewiston","ME","16010","Lewiston County","Career","","44.886701","-67.268797","OPEN"
"201","Bangor Fire-Rescue","7937 Main Street","Bangor","ME","92620","Bangor County","Combination","","44.421032","-68.603556","OPEN"
"202","Bangor Fire Department - Station 2","3135 Main Street","Bangor","ME","69315","Bangor County","Volunteer","","43.698206","-68.255517","OPEN"
"203","South Portland Fire District","1076 Main Street","South Portland","ME","99767","South Portland County","Combination","","46.031704","-69.270829","OPEN"
"204","South Portland Fire Department - Station 2","379 Main Street","South Portland","ME","98245","South Portland County","Combination","","44.85352","-69.817329","OPEN"
"205","South Portland Fire-Rescue - Station 3","3110 Main Street","South Portland","ME","55386","South Portland County","Combination","","46.104331","-70.863439","OPEN"
"206","Auburn Volunteer Fire Department","5674 Main Street","Auburn","ME","85829","Auburn County","Combination","","45.184466","-67.872527","OPEN"
"207","Auburn Fire Department - Station 2","2527 Main Street","Auburn","ME","67969","Auburn County","Volunteer","","46.86635","-70.386401","OPEN"
"208","Baltimore Fire Department","1063 Main Street","Baltimore","MD","20004","Baltimore County","Paid","","38.986027","-77.234848","OPEN"
"209","Baltimore Fire District - Station 2","2864 Main Street","Baltimore","MD","63551","Baltimore County","Career","","38.10499","-79.359279","OPEN"
"210","Baltimore Fire Department - Station 3","9839 Main Street","Baltimore","MD","84123","Baltimore County","Career","","39.475744","-77.395179","OPEN"
"211","Frederick Fire-Rescue","5077 Main Street","Frederick","MD","45785","Frederick County","Volunteer","","38.997639","-77.060833","OPEN"
"212","Frederick Fire Protection District - Station 2","7597 Main Street","Frederick","MD","73058","Frederick County","Paid","","38.388626","-76.66036","OPEN"
"213","Frederick Fire Protection District - Station 3","2265 Main Street","Frederick","MD","80190","Frederick County","Paid","","39.261435","-75.229553","OPEN"
"214","Rockville Fire Department","8015 Main Street","Rockville","MD","74566","Rockville County","Paid","","39.68587","-75.165969","OPEN"
"215","Gaithersburg Volunteer Fire Department","8847 Main Street","Gaithersburg","MD","74463","Gaithersburg County","Paid","","38.41774","-76.421007","OPEN"
"216","Bowie Fire-Rescue","5056 Main Street","Bowie","MD","76166","Bowie County","Combination","","38.743724","-75.043776","OPEN"
"217","Bowie Volunteer Fire Department - Station 2","414 Main Street","Bowie","MD","48979","Bowie County","Career","","39.638268","-77.89331","OPEN"
"218","Bowie Fire Department - Station 3","3747 Main Street","Bowie","MD","72566","Bowie County","Combination","","38.706882","-77.696648","OPEN"
"219","Boston Fire Protection District","9611 Main Street","Boston","MA","53710","Boston County","Paid","","41.4667","-71.822828","OPEN"
"220","Worcester Fire Protection District","8853 Main Street","Worcester","MA","89596","Worcester County","Volunteer","","41.222168","-70.096961","OPEN"
"221","Worcester Fire Department - Station 2","4366 Main Street","Worcester","MA","81709","Worcester County","Paid","","42.596005","-71.19146","OPEN"
"222","Springfield Volunteer Fire Department","1597 Main Street","Springfield","MA","75096","Springfield County","Combination","","42.706507","-70.147523","OPEN"
"223","Cambridge Fire Protection District","1024 Main Street","Cambridge","MA","72703","Cambridge County","Career","","42.563257","-70.666657","OPEN"
"224","Cambridge Volunteer Fire Department - Station 2","5956 Main Street","Cambridge","MA","82147","Cambridge County","Volunteer","","41.236176","-73.031194","OPEN"
"225","Lowell Fire Department","9468 Main Street","Lowell","MA","81147","Lowell County","Paid","","42.092925","-72.416948","OPEN"
"226","Detroit Fire-Rescue","8646 Main Street","Detroit","MI","95248","Detroit County","Paid","","47.201715","-84.239252","OPEN"
"227","Detroit Fire Department - Station 2","6615 Main Street","Detroit","MI","52061","Detroit County","Paid","","45.559573","-83.399067","OPEN"
"228","Detroit Fire District - Station 3","4330 Main Street","Detroit","MI","85325","Detroit County","Combination","","42.213736","-89.775169","OPEN"
"229","Grand Rapids Fire Department","2354 Main Street","Grand Rapids","MI","34266","Grand Rapids County","Combination","","43.74631","-85.861064","OPEN"
"230","Grand Rapids Volunteer Fire Department - Station 2","9115 Main Street","Grand Rapids","MI","94914","Grand Rapids County","Volunteer","","47.007307","-84.911333","OPEN"
"231","Grand Rapids Fire Protection District - Station 3","3220 Main Street","Grand Rapids","MI","85699","Grand Rapids County","Paid","","46.191939","-82.988401","OPEN"
"232","Warren Fire Protection District","4893 Main Street","Warren","MI","52554","Warren County","Combination","","44.553483","-88.763462","OPEN"
"233","Sterling Heights Fire-Rescue","6935 Main Street","Sterling Heights","MI","31121","Sterling Heights County","Combination","","47.920826","-83.442044","OPEN"
"234","Sterling Heights Volunteer Fire Department - Station 2","6391 Main Street","Sterling Heights","MI","83048","Sterling Heights County","Paid","","42.128308","-86.734244","OPEN"
"235","Sterling Heights Fire Department - Station 3","1714 Main Street","Sterling Heights","MI","43065","Sterling Heights County","Combination","","42.576662","-90.0604","OPEN"
"236","Ann Arbor Fire Department","3328 Main Street","Ann Arbor","MI","11076","Ann Arbor County","Volunteer","","48.038568","-86.464201","OPEN"
"237","Ann Arbor Fire Protection District - Station 2","9930 Main Street","Ann Arbor","MI","23791","Ann Arbor County","Paid","","43.41921","-86.037964","OPEN"
"238","Ann Arbor Fire District - Station 3","5179 Main Street","Ann Arbor","MI","16153","Ann Arbor County","Combination","","43.761531","-89.613042","OPEN"
"239","Lansing Fire-Rescue","2630 Main Street","Lansing","MI","61013","Lansing County","Volunteer","","42.96407","-85.440282","OPEN"
"240","Minneapolis Fire Department","5670 Main Street","Minneapolis","MN","90462","Minneapolis County","Combination","","47.978303","-96.466811","OPEN"
"241","St. Paul Fire Protection District","6049 Main Street","St. Paul","MN","57198","St. Paul County","Combination","","47.945052","-96.519245","OPEN"
"242","Rochester Fire-Rescue","3262 Main Street","Rochester","MN","61649","Rochester County","Paid","","47.415202","-91.591066","OPEN"
"243","Duluth Volunteer Fire Department","3139 Main Street","Duluth","MN","68392","Duluth County","Career","","46.573641","-97.129423","OPEN"
"244","Duluth Fire District - Station 2","5952 Main Street","Duluth","MN","99298","Duluth County","Combination","","45.504873","-92.275297","OPEN"
"245","Bloomington Volunteer Fire Department","1624 Main Street","Bloomington","MN","89565","Bloomington County","Career","","46.961313","-89.733546","OPEN"
"246","Bloomington Fire District - Station 2","3613 Main Street","Bloomington","MN","58595","Bloomington County","Career","","45.369383","-91.650551","OPEN"
"247","Bloomington Fire Protection District - Station 3","1571 Main Street","Bloomington","MN","72663","Bloomington County","Combination","","48.667353","-91.406336","OPEN"
"248","Jackson Fire-Rescue","2311 Main Street","Jackson","MS","55676","Jackson County","Volunteer","","30.897957","-89.879466","OPEN"
"249","Jackson Fire-Rescue - Station 2","1591 Main Street","Jackson","MS","80486","Jackson County","Career","","30.237059","-89.839728","OPEN"
"250","Jackson Fire Department - Station 3","7948 Main Street","Jackson","MS","45697","Jackson County","Paid","","32.394075","-90.000927","OPEN"
"251","Gulfport Fire Protection District","1825 Main Street","Gulfport","MS","71624","Gulfport County","Paid","","34.309465","-91.39501","OPEN"
"252","Southaven Fire-Rescue","4805 Main Street","Southaven","MS","71883","Southaven County","Paid","","32.112799","-88.946896","OPEN"
"253","Southaven Fire Protection District - Station 2","7812 Main Street","Southaven","MS","56321","Southaven County","Combination","","30.80754","-90.588581","OPEN"
"254","Hattiesburg Fire District","1422 Main Street","Hattiesburg","MS","29502","Hattiesburg County","Career","","30.201928","-88.791976","OPEN"
"255","Biloxi Fire District","9371 Main Street","Biloxi","MS","61972","Biloxi County","Combination","","34.83477","-90.277035","OPEN"
"256","Kansas City Fire-Rescue","1513 Main Street","Kansas City","MO","71349","Kansas City County","Career","","36.528313","-92.606021","OPEN"
"257","Kansas City Fire Department - Station 2","8652 Main Street","Kansas City","MO","48917","Kansas City County","Paid","","37.577385","-95.449931","OPEN"
"258","Kansas City Fire Department - Station 3","5389 Main Street","Kansas City","MO","79299","Kansas City County","Paid","","38.664354","-92.641908","OPEN"
"259","St. Louis Fire Protection District","7168 Main Street","St. Louis","MO","59424","St. Louis County","Career","","39.843661","-93.51485","OPEN"
"260","St. Louis Fire District - Station 2","9306 Main Street","St. Louis","MO","70397","St. Louis County","Career","","36.68596","-93.503855","OPEN"
"261","Springfield Fire District","2098 Main Street","Springfield","MO","63587","Springfield County","Paid","","39.356837","-93.80882","OPEN"
"262","Independence Fire-Rescue","7891 Main Street","Independence","MO","79867","Independence County","Combination","","38.452495","-90.955096","OPEN"
"263","Columbia Fire-Rescue","1962 Main Street","Columbia","MO","97628","Columbia County","Combination","","39.912614","-91.335615","OPEN"
"264","Lee's Summit Fire-Rescue","9089 Main Street","Lee's Summit","MO","97592","Lee's Summit County","Career","","39.963474","-92.03725","OPEN"
"265","Lee's Summit Fire District - Station 2","7073 Main Street","Lee's Summit","MO","95898","Lee's Summit County","Career","","38.123257","-92.8632","OPEN"
"266","Billings Fire-Rescue","3408 Main Street","Billings","MT","83562","Billings County","Career","","48.963886","-114.264082","OPEN"
"267","Billings Fire Department - Station 2","3765 Main Street","Billings","MT","74161","Billings County","Combination","","47.693736","-107.338688","OPEN"
"268","Missoula Fire-Rescue","4954 Main Street","Missoula","MT","41258","Missoula County","Volunteer","","45.743414","-115.630716","OPEN"
"269","Great Falls Volunteer Fire Department","3387 Main Street","Great Falls","MT","80529","Great Falls County","Volunteer","","46.471984","-115.470783","OPEN"
"270","Great Falls Fire District - Station 2","6785 Main Street","Great Falls","MT","39232","Great Falls County","Career","","46.262046","-107.33859","OPEN"
"271","Bozeman Fire-Rescue","503 Main Street","Bozeman","MT","38666","Bozeman County","Paid","","47.073682","-109.316783","OPEN"
"272","Butte Fire-Rescue","9918 Main Street","Butte","MT","52861","Butte County","Volunteer","","45.894259","-106.123134","OPEN"
"273","Butte Fire Protection District - Station 2","3695 Main Street","Butte","MT","74372","Butte County","Paid","","48.162348","-109.833329","OPEN"
"274","Butte Fire Protection District - Station 3","3804 Main Street","Butte","MT","26875","Butte County","Career","","48.808368","-114.727673","OPEN"
"275","Omaha Fire District","6237 Main Street","Omaha","NE","96020","Omaha County","Combination","","41.565625","-102.534536","OPEN"
"276","Omaha Fire Department - Station 2","184 Main Street","Omaha","NE","58654","Omaha County","Volunteer","","40.513059","-100.792248","OPEN"
"277","Lincoln Fire Protection District","5052 Main Street","Lincoln","NE","37596","Lincoln County","Career","","40.551885","-96.530653","OPEN"
"278","Bellevue Fire District","1258 Main Street","Bellevue","NE","35246","Bellevue County","Paid","","42.29464","-103.502367","OPEN"
"279","Bellevue Fire Department - Station 2","2033 Main Street","Bellevue","NE","35518","Bellevue County","Paid","","40.496493","-95.86296","OPEN"
"280","Grand Island Fire Protection District","2383 Main Street","Grand Island","NE","80508","Grand Island County","Combination","","42.319531","-103.980916","OPEN"
"281","Kearney Volunteer Fire Department","7145 Main Street","Kearney","NE","26980","Kearney County","Career","","40.323246","-99.296956","OPEN"
"282","Kearney Fire-Rescue - Station 2","8065 Main Street","Kearney","NE","80626","Kearney County","Volunteer","","42.627975","-98.833108","OPEN"
"283","Kearney Fire Protection District - Station 3","3232 Main Street","Kearney","NE","72394","Kearney County","Combination","","41.058489","-103.475746","OPEN"
"284","Las Vegas Fire-Rescue","4612 Main Street","Las Vegas","NV","50722","Las Vegas County","Combination","","36.569202","-117.587002","OPEN"
"285","Henderson Fire Protection District","7636 Main Street","Henderson","NV","44260","Henderson County","Career","","41.116499","-119.746264","OPEN"
"286","Reno Fire Department","8351 Main Street","Reno","NV","11028","Reno County","Paid","","38.658858","-114.617333","OPEN"
"287","Reno Volunteer Fire Department - Station 2","6678 Main Street","Reno","NV","96028","Reno County","Paid","","38.377563","-117.722082","OPEN"
"288","Reno Fire Protection District - Station 3","7683 Main Street","Reno","NV","55232","Reno County","Paid","","38.504482","-116.886131","OPEN"
"289","North Las Vegas Volunteer Fire Department","2092 Main Street","North Las Vegas","NV","11319","North Las Vegas County","Volunteer","","35.149567","-115.844256","OPEN"
"290","North Las Vegas Fire Department - Station 2","2845 Main Street","North Las Vegas","NV","41301","North Las Vegas County","Combination","","40.779668","-119.281012","OPEN"
"291","Sparks Fire District","6040 Main Street","Sparks","NV","16395","Sparks County","Combination","","40.587207","-115.465007","OPEN"
"292","Sparks Fire Department - Station 2","2288 Main Street","Sparks","NV","31675","Sparks County","Volunteer","","40.533361","-118.581259","OPEN"
"293","Manchester Fire-Rescue","1126 Main Street","Manchester","NH","44449","Manchester County","Paid","","44.938377","-71.713281","OPEN"
"294","Nashua Fire Department","7700 Main Street","Nashua","NH","89879","Nashua County","Combination","","42.721673","-72.510067","OPEN"
"295","Concord Fire Department","6625 Main Street","Concord","NH","18246","Concord County","Combination","","44.891744","-71.285017","OPEN"
"296","Concord Volunteer Fire Department - Station 2","119 Main Street","Concord","NH","86628","Concord County","Career","","44.946883","-72.47834","OPEN"
"297","Concord Fire Protection District - Station 3","227 Main Street","Concord","NH","15469","Concord County","Combination","","43.770153","-71.033652","OPEN"
"298","Derry Fire District","3870 Main Street","Derry","NH","11875","Derry County","Paid","","43.192765","-70.941957","OPEN"
"299","Derry Volunteer Fire Department - Station 2","7956 Main Street","Derry","NH","53517","Derry County","Paid","","44.393903","-71.629844","OPEN"
"300","Derry Volunteer Fire Department - Station 3","2498 Main Street","Derry","NH","92405","Derry County","Combination","","43.841341","-72.29693","OPEN"
"301","Dover Volunteer Fire Department","7464 Main Street","Dover","NH","31794","Dover County","Combination","","44.590192","-70.786325","OPEN"
"302","Dover Fire-Rescue - Station 2","2169 Main Street","Dover","NH","47757","Dover County","Career","","43.535489","-71.381849","OPEN"
"303","Dover Volunteer Fire Department - Station 3","1533 Main Street","Dover","NH","83917","Dover County","Paid","","44.970314","-72.492329","OPEN"
"304","Newark Fire Protection District","9144 Main Street","Newark","NJ","21242","Newark County","Career","","40.056592","-74.170541","OPEN"
"305","Jersey City Volunteer Fire Department","200 Main Street","Jersey City","NJ","99751","Jersey City County","Volunteer","","40.149265","-74.840225","OPEN"
"306","Jersey City Fire Protection District - Station 2","4804 Main Street","Jersey City","NJ","90788","Jersey City County","Career","","39.676663","-74.150776","OPEN"
"307","Jersey City Volunteer Fire Department - Station 3","1269 Main Street","Jersey City","NJ","11176","Jersey City County","Combination","","40.879766","-73.987443","OPEN"
"308","Paterson Volunteer Fire Department","821 Main Street","Paterson","NJ","85814","Paterson County","Combination","","41.382973","-74.019604","OPEN"
"309","Paterson Fire Department - Station 2","3003 Main Street","Paterson","NJ","22966","Paterson County","Volunteer","","40.901761","-75.129097","OPEN"
"310","Paterson Fire Department - Station 3","9735 Main Street","Paterson","NJ","14031","Paterson County","Volunteer","","39.879167","-74.986889","OPEN"
"311","Elizabeth Fire Department","9030 Main Street","Elizabeth","NJ","55980","Elizabeth County","Career","","39.657963","-74.375611","OPEN"
"312","Elizabeth Fire Department - Station 2","765 Main Street","Elizabeth","NJ","17447","Elizabeth County","Combination","","38.923361","-75.324709","OPEN"
"313","Elizabeth Fire Protection District - Station 3","6299 Main Street","Elizabeth","NJ","52654","Elizabeth County","Career","","40.81671","-74.501799","OPEN"
"314","Trenton Fire-Rescue","1424 Main Street","Trenton","NJ","31065","Trenton County","Paid","","40.48367","-74.795121","OPEN"
"315","Albuquerque Fire District","7067 Main Street","Albuquerque","NM","36989","Albuquerque County","Combination","","34.435449","-103.250894","OPEN"
"316","Las Cruces Fire Department","7018 Main Street","Las Cruces","NM","93518","Las Cruces County","Combination","","32.474764","-107.831278","OPEN"
"317","Las Cruces Fire-Rescue - Station 2","3092 Main Street","Las Cruces","NM","73833","Las Cruces County","Career","","32.420148","-106.718378","OPEN"
"318","Las Cruces Fire Department - Station 3","955 Main Street","Las Cruces","NM","52342","Las Cruces County","Combination","","35.470949","-103.302928","OPEN"
"319","Rio Rancho Fire Protection District","1729 Main Street","Rio Rancho","NM","23940","Rio Rancho County","Paid","","34.261721","-103.297675","OPEN"
"320","Rio Rancho Fire District - Station 2","1788 Main Street","Rio Rancho","NM","43272","Rio Rancho County","Volunteer","","36.277857","-107.187127","OPEN"
"321","Santa Fe Fire District","5267 Main Street","Santa Fe","NM","31635","Santa Fe County","Paid","","33.114249","-106.281748","OPEN"
"322","Santa Fe Fire District - Station 2","2980 Main Street","Santa Fe","NM","90164","Santa Fe County","Paid","","33.486287","-108.371417","OPEN"
"323","Roswell Volunteer Fire Department","5603 Main Street","Roswell","NM","83827","Roswell County","Combination","","31.68999","-103.975364","OPEN"
"324","Roswell Fire Protection District - Station 2","9291 Main Street","Roswell","NM","46614","Roswell County","Career","","31.488324","-106.320177","OPEN"
"325","New York Fire District","4945 Main Street","New York","NY","63402","New York County","Paid","","44.25946","-78.11302","OPEN"
"326","New York Fire-Rescue - Station 2","3356 Main Street","New York","NY","23581","New York County","Career","","41.046429","-78.268534","OPEN"
"327","Buffalo Fire-Rescue","5940 Main Street","Buffalo","NY","97513","Buffalo County","Career","","41.371783","-76.196617","OPEN"
"328","Buffalo Fire District - Station 2","5820 Main Street","Buffalo","NY","31920","Buffalo County","Career","","40.625173","-76.955065","OPEN"
"329","Buffalo Fire Department - Station 3","5440 Main Street","Buffalo","NY","38913","Buffalo County","Career","","43.09083","-73.107007","OPEN"
"330","Rochester Fire Department","4565 Main Street","Rochester","NY","70572","Rochester County","Career","","42.618508","-74.587134","OPEN"
"331","Rochester Fire-Rescue - Station 2","2403 Main Street","Rochester","NY","41440","Rochester County","Volunteer","","43.719899","-73.544496","OPEN"
"332","Yonkers Fire District","5169 Main Street","Yonkers","NY","57890","Yonkers County","Volunteer","","40.667372","-72.08427","OPEN"
"333","Syracuse Volunteer Fire Department","2812 Main Street","Syracuse","NY","44806","Syracuse County","Volunteer","","41.53917","-74.240646","OPEN"
"334","Syracuse Volunteer Fire Department - Station 2","9613 Main Street","Syracuse","NY","20067","Syracuse County","Paid","","44.990802","-79.529439","OPEN"
"335","Syracuse Volunteer Fire Department - Station 3","2741 Main Street","Syracuse","NY","46826","Syracuse County","Paid","","44.903972","-76.540119","OPEN"
"336","Albany Fire Department","1284 Main Street","Albany","NY","70186","Albany County","Paid","","44.33146","-72.220107","OPEN"
"337","Albany Fire Protection District - Station 2","4138 Main Street","Albany","NY","61560","Albany County","Combination","","43.801806","-75.450999","OPEN"
"338","Charlotte Fire Department","5321 Main Street","Charlotte","NC","89040","Charlotte County","Career","","34.750765","-81.904347","OPEN"
"339","Charlotte Fire Department - Station 2","6697 Main Street","Charlotte","NC","79910","Charlotte County","Paid","","36.532204","-76.33527","OPEN"
"340","Charlotte Fire-Rescue - Station 3","9161 Main Street","Charlotte","NC","77131","Charlotte County","Combination","","33.817487","-80.883679","OPEN"
"341","Raleigh Fire Protection District","4856 Main Street","Raleigh","NC","54868","Raleigh County","Career","","36.585907","-79.936854","OPEN"
"342","Raleigh Fire Protection District - Station 2","7702 Main Street","Raleigh","NC","98916","Raleigh County","Career","","34.46014","-79.880441","OPEN"
"343","Greensboro Fire Protection District","6330 Main Street","Greensboro","NC","67840","Greensboro County","Combination","","34.826851","-83.025613","OPEN"
"344","Greensboro Fire Protection District - Station 2","2190 Main Street","Greensboro","NC","61976","Greensboro County","Paid","","35.037932","-82.438938","OPEN"
"345","Durham Fire Department","3895 Main Street","Durham","NC","25226","Durham County","Paid","","34.006845","-77.637732","OPEN"
"346","Durham Fire-Rescue - Station 2","725 Main Street","Durham","NC","74685","Durham County","Volunteer","","35.818442","-82.344269","OPEN"
"347","Winston-Salem Volunteer Fire Department","7317 Main Street","Winston-Salem","NC","93221","Winston-Salem County","Career","","33.961356","-80.678491","OPEN"
"348","Winston-Salem Volunteer Fire Department - Station 2","5037 Main Street","Winston-Salem","NC","41769","Winston-Salem County","Paid","","33.932657","-82.173107","OPEN"
"349","Fayetteville Fire-Rescue","9863 Main Street","Fayetteville","NC","91683","Fayetteville County","Volunteer","","35.623665","-80.364603","OPEN"
"350","Fayetteville Volunteer Fire Department - Station 2","7443 Main Street","Fayetteville","NC","20594","Fayetteville County","Paid","","34.008341","-80.950992","OPEN"
"351","Fargo Fire-Rescue","3044 Main Street","Fargo","ND","44683","Fargo County","Paid","","47.070804","-96.879389","OPEN"
"352","Fargo Fire Protection District - Station 2","2756 Main Street","Fargo","ND","82968","Fargo County","Paid","","46.62955","-103.686969","OPEN"
"353","Fargo Fire Protection District - Station 3","7590 Main Street","Fargo","ND","72968","Fargo County","Career","","46.706041","-98.107954","OPEN"
"354","Bismarck Volunteer Fire Department","7745 Main Street","Bismarck","ND","40290","Bismarck County","Volunteer","","47.311913","-97.502765","OPEN"
"355","Grand Forks Fire District","5243 Main Street","Grand Forks","ND","49588","Grand Forks County","Career","","46.980593","-97.137276","OPEN"
"356","Grand Forks Fire Protection District - Station 2","2920 Main Street","Grand Forks","ND","31630","Grand Forks County","Volunteer","","47.925399","-103.286322","OPEN"
"357","Grand Forks Fire Protection District - Station 3","8607 Main Street","Grand Forks","ND","42781","Grand Forks County","Volunteer","","48.594881","-98.159353","OPEN"
"358","Minot Volunteer Fire Department","7567 Main Street","Minot","ND","33479","Minot County","Combination","","48.520308","-102.114698","OPEN"
"359","West Fargo Fire Protection District","5060 Main Street","West Fargo","ND","71172","West Fargo County","Volunteer","","46.712229","-100.900229","OPEN"
"360","Columbus Fire Department","5352 Main Street","Columbus","OH","59495","Columbus County","Paid","","41.81096","-81.806685","OPEN"
"361","Columbus Volunteer Fire Department - Station 2","1545 Main Street","Columbus","OH","39645","Columbus County","Volunteer","","40.050935","-80.557421","OPEN"
"362","Cleveland Volunteer Fire Department","368 Main Street","Cleveland","OH","93117","Cleveland County","Volunteer","","40.69419","-81.853441","OPEN"
"363","Cleveland Fire Protection District - Station 2","1207 Main Street","Cleveland","OH","10368","Cleveland County","Volunteer","","39.959207","-84.732776","OPEN"
"364","Cleveland Fire Department - Station 3","2962 Main Street","Cleveland","OH","68882","Cleveland County","Career","","41.413793","-81.291311","OPEN"
"365","Cincinnati Fire District","4161 Main Street","Cincinnati","OH","23286","Cincinnati County","Paid","","38.645315","-84.328905","OPEN"
"366","Cincinnati Fire District - Station 2","1587 Main Street","Cincinnati","OH","55360","Cincinnati County","Career","","38.811627","-81.528729","OPEN"
"367","Cincinnati Fire Protection District - Station 3","2142 Main Street","Cincinnati","OH","97554","Cincinnati County","Combination","","39.681737","-81.026001","OPEN"
"368","Toledo Fire Protection District","171 Main Street","Toledo","OH","84693","Toledo County","Paid","","39.59187","-84.604059","OPEN"
"369","Akron Fire Department","2112 Main Street","Akron","OH","24528","Akron County","Paid","","38.753353","-82.881484","OPEN"
"370","Akron Fire Protection District - Station 2","6267 Main Street","Akron","OH","99915","Akron County","Volunteer","","39.512221","-84.115987","OPEN"
"371","Dayton Fire Department","171 Main Street","Dayton","OH","84986","Dayton County","Volunteer","","40.299319","-83.859784","OPEN"
"372","Dayton Volunteer Fire Department - Station 2","2878 Main Street","Dayton","OH","99409","Dayton County","Combination","","41.022224","-80.952412","OPEN"
"373","Dayton Fire-Rescue - Station 3","5000 Main Street","Dayton","OH","42744","Dayton County","Combination","","39.114813","-80.588178","OPEN"
"374","Oklahoma City Fire Protection District","165 Main Street","Oklahoma City","OK","91468","Oklahoma City County","Volunteer","","35.266912","-102.73943","OPEN"
"375","Oklahoma City Fire District - Station 2","2096 Main Street","Oklahoma City","OK","99882","Oklahoma City County","Career","","33.949182","-101.697959","OPEN"
"376","Oklahoma City Fire District - Station 3","7470 Main Street","Oklahoma City","OK","83081","Oklahoma City County","Combination","","35.787629","-97.118207","OPEN"
"377","Tulsa Fire Protection District","4918 Main Street","Tulsa","OK","59882","Tulsa County","Paid","","35.640479","-95.730936","OPEN"
"378","Tulsa Fire-Rescue - Station 2","9454 Main Street","Tulsa","OK","39141","Tulsa County","Paid","","35.553248","-99.229519","OPEN"
"379","Tulsa Volunteer Fire Department - Station 3","4472 Main Street","Tulsa","OK","52446","Tulsa County","Combination","","36.841584","-95.484147","OPEN"
"380","Norman Fire Protection District","496 Main Street","Norman","OK","78509","Norman County","Combination","","36.239668","-95.348203","OPEN"
"381","Norman Fire-Rescue - Station 2","2937 Main Street","Norman","OK","30784","Norman County","Career","","34.951922","-96.727793","OPEN"
"382","Broken Arrow Volunteer Fire Department","6539 Main Street","Broken Arrow","OK","28971","Broken Arrow County","Paid","","36.148267","-94.69507","OPEN"
"383","Broken Arrow Volunteer Fire Department - Station 2","3834 Main Street","Broken Arrow","OK","69676","Broken Arrow County","Combination","","34.86075","-102.407868","OPEN"
"384","Lawton Fire District","9191 Main Street","Lawton","OK","77194","Lawton County","Paid","","33.613388","-95.937375","OPEN"
"385","Lawton Fire Department - Station 2","3091 Main Street","Lawton","OK","94967","Lawton County","Combination","","36.481667","-102.994357","OPEN"
"386","Portland Fire Protection District","4654 Main Street","Portland","OR","15825","Portland County","Volunteer","","45.326685","-117.885257","OPEN"
"387","Portland Volunteer Fire Department - Station 2","2143 Main Street","Portland","OR","96438","Portland County","Volunteer","","42.184124","-118.641876","OPEN"
"388","Portland Fire Department - Station 3","3663 Main Street","Portland","OR","97355","Portland County","Volunteer","","43.118481","-121.674258","OPEN"
"389","Salem Fire Department","5432 Main Street","Salem","OR","34364","Salem County","Paid","","44.122656","-121.246851","OPEN"
"390","Eugene Fire Protection District","4261 Main Street","Eugene","OR","64995","Eugene County","Combination","","45.277156","-123.181169","OPEN"
"391","Eugene Fire District - Station 2","8078 Main Street","Eugene","OR","71604","Eugene County","Paid","","42.921619","-118.487386","OPEN"
"392","Gresham Volunteer Fire Department","6905 Main Street","Gresham","OR","46421","Gresham County","Combination","","45.814694","-123.769908","OPEN"
"393","Gresham Fire-Rescue - Station 2","5272 Main Street","Gresham","OR","34922","Gresham County","Combination","","44.506042","-117.621128","OPEN"
"394","Gresham Fire Protection District - Station 3","8575 Main Street","Gresham","OR","52948","Gresham County","Combination","","44.748122","-117.951107","OPEN"
"395","Hillsboro Volunteer Fire Department","3312 Main Street","Hillsboro","OR","93996","Hillsboro County","Paid","","44.96321","-123.239316","OPEN"
"396","Hillsboro Fire Department - Station 2","8919 Main Street","Hillsboro","OR","10611","Hillsboro County","Combination","","43.706577","-123.415792","OPEN"
"397","Bend Fire Department","2534 Main Street","Bend","OR","35081","Bend County","Career","","44.107965","-123.810076","OPEN"
"398","Philadelphia Fire Protection District","5509 Main Street","Philadelphia","PA","79994","Philadelphia County","Career","","41.901645","-75.210925","OPEN"
"399","Philadelphia Fire Protection District - Station 2","7811 Main Street","Philadelphia","PA","18207","Philadelphia County","Volunteer","","40.246237","-75.860927","OPEN"
"400","Philadelphia Volunteer Fire Department - Station 3","5460 Main Street","Philadelphia","PA","75749","Philadelphia County","Paid","","42.093671","-77.349183","OPEN"
"401","Pittsburgh Fire District","6998 Main Street","Pittsburgh","PA","49070","Pittsburgh County","Paid","","41.568564","-79.449296","OPEN"
"402","Pittsburgh Volunteer Fire Department - Station 2","8840 Main Street","Pittsburgh","PA","97052","Pittsburgh County","Career","","39.828078","-80.496796","OPEN"
"403","Pittsburgh Fire Protection District - Station 3","6074 Main Street","Pittsburgh","PA","98601","Pittsburgh County","Paid","","41.383566","-80.200587","OPEN"
"404","Allentown Fire Department","7103 Main Street","Allentown","PA","41438","Allentown County","Combination","","40.228533","-75.900478","OPEN"
"405","Reading Fire Department","9853 Main Street","Reading","PA","10593","Reading County","Paid","","41.702613","-79.710857","OPEN"
"406","Reading Fire District - Station 2","1564 Main Street","Reading","PA","40306","Reading County","Career","","39.870035","-78.426551","OPEN"
"407","Reading Fire Protection District - Station 3","4605 Main Street","Reading","PA","33397","Reading County","Career","","41.1797","-80.341291","OPEN"
"408","Erie Fire-Rescue","784 Main Street","Erie","PA","83302","Erie County","Combination","","41.362945","-77.153938","OPEN"
"409","Erie Fire Protection District - Station 2","4307 Main Street","Erie","PA","19253","Erie County","Volunteer","","41.00889","-75.302533","OPEN"
"410","Erie Fire-Rescue - Station 3","7488 Main Street","Erie","PA","31546","Erie County","Combination","","40.631131","-77.547432","OPEN"
"411","Scranton Fire Department","451 Main Street","Scranton","PA","35666","Scranton County","Combination","","39.998155","-79.661378","OPEN"
"412","Scranton Fire District - Station 2","600 Main Street","Scranton","PA","81307","Scranton County","Career","","40.470551","-76.686492","OPEN"
"413","Scranton Volunteer Fire Department - Station 3","364 Main Street","Scranton","PA","78537","Scranton County","Career","","41.294755","-79.581559","OPEN"
"414","Providence Fire-Rescue","5216 Main Street","Providence","RI","79070","Providence County","Combination","","41.574904","-71.579675","OPEN"
"415","Providence Volunteer Fire Department - Station 2","4302 Main Street","Providence","RI","94271","Providence County","Paid","","41.438893","-71.288057","OPEN"
"416","Warwick Fire Protection District","7228 Main Street","Warwick","RI","34770","Warwick County","Paid","","41.997172","-71.108521","OPEN"
"417","Cranston Fire Protection District","6375 Main Street","Cranston","RI","57748","Cranston County","Paid","","41.11356","-71.176925","OPEN"
"418","Pawtucket Volunteer Fire Department","5547 Main Street","Pawtucket","RI","12408","Pawtucket County","Combination","","41.196943","-71.182893","OPEN"
"419","Pawtucket Fire-Rescue - Station 2","2556 Main Street","Pawtucket","RI","86432","Pawtucket County","Paid","","41.838442","-71.773042","OPEN"
"420","East Providence Fire Department","1306 Main Street","East Providence","RI","71974","East Providence County","Paid","","41.767625","-71.485185","OPEN"
"421","East Providence Fire Department - Station 2","1754 Main Street","East Providence","RI","75938","East Providence County","Career","","41.935398","-71.187318","OPEN"
"422","Charleston Fire Department","7090 Main Street","Charleston","SC","54538","Charleston County","Paid","","33.486013","-78.686559","OPEN"
"423","Charleston Fire Protection District - Station 2","6893 Main Street","Charleston","SC","30252","Charleston County","Volunteer","","33.506047","-80.563183","OPEN"
"424","Charleston Fire-Rescue - Station 3","8109 Main Street","Charleston","SC","62809","Charleston County","Volunteer","","33.488392","-83.264265","OPEN"
"425","Columbia Fire District","7836 Main Street","Columbia","SC","39977","Columbia County","Career","","32.663042","-82.909844","OPEN"
"426","Columbia Fire Department - Station 2","4621 Main Street","Columbia","SC","53728","Columbia County","Paid","","32.810419","-81.483944","OPEN"
"427","North Charleston Fire District","4139 Main Street","North Charleston","SC","80370","North Charleston County","Career","","32.488218","-79.56595","OPEN"
"428","Mount Pleasant Fire Department","5212 Main Street","Mount Pleasant","SC","67527","Mount Pleasant County","Volunteer","","32.34298","-81.062063","OPEN"
"429","Mount Pleasant Fire-Rescue - Station 2","9720 Main Street","Mount Pleasant","SC","51506","Mount Pleasant County","Volunteer","","33.930572","-83.293721","OPEN"
"430","Mount Pleasant Fire-Rescue - Station 3","5529 Main Street","Mount Pleasant","SC","61705","Mount Pleasant County","Combination","","32.983589","-80.059284","OPEN"
"431","Rock Hill Volunteer Fire Department","3330 Main Street","Rock Hill","SC","12458","Rock Hill County","Career","","32.722329","-80.575209","OPEN"
"432","Rock Hill Fire District - Station 2","9911 Main Street","Rock Hill","SC","46184","Rock Hill County","Paid","","32.477491","-80.514566","OPEN"
"433","Sioux Falls Fire Department","6902 Main Street","Sioux Falls","SD","89442","Sioux Falls County","Paid","","44.012336","-101.74398","OPEN"
"434","Rapid City Fire Department","7549 Main Street","Rapid City","SD","99311","Rapid City County","Paid","","45.60831","-99.045932","OPEN"
"435","Rapid City Fire Department - Station 2","5599 Main Street","Rapid City","SD","37421","Rapid City County","Paid","","42.748687","-97.042012","OPEN"
"436","Aberdeen Fire Department","7950 Main Street","Aberdeen","SD","38874","Aberdeen County","Career","","45.422856","-101.202972","OPEN"
"437","Aberdeen Fire Protection District - Station 2","883 Main Street","Aberdeen","SD","35117","Aberdeen County","Career","","45.218746","-102.984634","OPEN"
"438","Brookings Fire Protection District","6809 Main Street","Brookings","SD","17803","Brookings County","Paid","","44.393383","-103.362709","OPEN"
"439","Brookings Fire Protection District - Station 2","4526 Main Street","Brookings","SD","96166","Brookings County","Combination","","45.171637","-96.652709","OPEN"
"440","Watertown Fire Department","8405 Main Street","Watertown","SD","13022","Watertown County","Paid","","45.619375","-103.122988","OPEN"
"441","Watertown Fire Department - Station 2","6839 Main Street","Watertown","SD","17706","Watertown County","Paid","","45.178168","-96.926742","OPEN"
"442","Nashville Fire Department","4347 Main Street","Nashville","TN","82928","Nashville County","Career","","36.664409","-82.620817","OPEN"
"443","Nashville Fire Protection District - Station 2","5659 Main Street","Nashville","TN","73208","Nashville County","Paid","","35.127751","-90.000577","OPEN"
"444","Nashville Volunteer Fire Department - Station 3","8549 Main Street","Nashville","TN","83338","Nashville County","Career","","35.977454","-86.162935","OPEN"
"445","Memphis Fire District","4763 Main Street","Memphis","TN","87684","Memphis County","Paid","","35.187937","-84.601155","OPEN"
"446","Memphis Fire-Rescue - Station 2","3270 Main Street","Memphis","TN","62579","Memphis County","Combination","","36.050202","-83.180683","OPEN"
"447","Knoxville Fire-Rescue","6566 Main Street","Knoxville","TN","37582","Knoxville County","Volunteer","","36.093662","-87.871338","OPEN"
"448","Knoxville Volunteer Fire Department - Station 2","8140 Main Street","Knoxville","TN","70461","Knoxville County","Volunteer","","35.727063","-88.983014","OPEN"
"449","Knoxville Fire Department - Station 3","8148 Main Street","Knoxville","TN","93501","Knoxville County","Combination","","35.512362","-88.248531","OPEN"
"450","Chattanooga Volunteer Fire Department","7161 Main Street","Chattanooga","TN","89384","Chattanooga County","Paid","","35.159248","-84.510047","OPEN"
"451","Chattanooga Fire Protection District - Station 2","1711 Main Street","Chattanooga","TN","43771","Chattanooga County","Volunteer","","35.566259","-85.970348","OPEN"
"452","Clarksville Fire Department","7280 Main Street","Clarksville","TN","33994","Clarksville County","Volunteer","","35.01758","-87.652578","OPEN"
"453","Clarksville Fire District - Station 2","2307 Main Street","Clarksville","TN","11995","Clarksville County","Paid","","35.423382","-86.739414","OPEN"
"454","Clarksville Fire Protection District - Station 3","3019 Main Street","Clarksville","TN","98737","Clarksville County","Combination","","36.359242","-82.768734","OPEN"
"455","Houston Fire-Rescue","2510 Main Street","Houston","TX","78367","Houston County","Volunteer","","29.068661","-99.155701","OPEN"
"456","Houston Fire Protection District - Station 2","9024 Main Street","Houston","TX","45231","Houston County","Volunteer","","30.007727","-96.426123","OPEN"
"457","San Antonio Fire Department","9252 Main Street","San Antonio","TX","87323","San Antonio County","Volunteer","","27.587792","-99.957276","OPEN"
"458","San Antonio Volunteer Fire Department - Station 2","9171 Main Street","San Antonio","TX","16305","San Antonio County","Combination","","33.830821","-100.029598","OPEN"
"459","San Antonio Fire Department - Station 3","1338 Main Street","San Antonio","TX","97677","San Antonio County","Combination","","30.773201","-105.458336","OPEN"
"460","Dallas Volunteer Fire Department","8984 Main Street","Dallas","TX","14123","Dallas County","Volunteer","","29.733657","-100.534592","OPEN"
"461","Dallas Fire Department - Station 2","6484 Main Street","Dallas","TX","48491","Dallas County","Paid","","26.901571","-106.522931","OPEN"
"462","Dallas Fire Department - Station 3","2011 Main Street","Dallas","TX","55827","Dallas County","Volunteer","","26.927126","-101.338465","OPEN"
"463","Austin Fire District","8046 Main Street","Austin","TX","32838","Austin County","Career","","36.008748","-100.876388","OPEN"
"464","Austin Fire-Rescue - Station 2","5852 Main Street","Austin","TX","35008","Austin County","Paid","","31.456686","-105.574979","OPEN"
"465","Austin Volunteer Fire Department - Station 3","1216 Main Street","Austin","TX","11208","Austin County","Volunteer","","27.093456","-103.560718","OPEN"
"466","Fort Worth Fire-Rescue","3924 Main Street","Fort Worth","TX","84184","Fort Worth County","Paid","","36.345348","-100.222295","OPEN"
"467","Fort Worth Fire-Rescue - Station 2","3185 Main Street","Fort Worth","TX","77474","Fort Worth County","Combination","","27.094874","-94.278529","OPEN"
"468","El Paso Fire-Rescue","3144 Main Street","El Paso","TX","11516","El Paso County","Career","","30.083052","-102.047239","OPEN"
"469","Arlington Fire Protection District","4683 Main Street","Arlington","TX","40982","Arlington County","Paid","","31.142043","-97.777711","OPEN"
"470","Arlington Fire Department - Station 2","2470 Main Street","Arlington","TX","15812","Arlington County","Career","","31.424367","-96.903028","OPEN"
"471","Plano Volunteer Fire Department","2407 Main Street","Plano","TX","81850","Plano County","Combination","","31.172817","-96.980431","OPEN"
"472","Plano Fire District - Station 2","7124 Main Street","Plano","TX","62830","Plano County","Career","","29.164995","-95.912031","OPEN"
"473","Salt Lake City Fire Protection District","4309 Main Street","Salt Lake City","UT","37041","Salt Lake City County","Career","","41.206485","-110.483467","OPEN"
"474","Salt Lake City Fire Protection District - Station 2","3580 Main Street","Salt Lake City","UT","67798","Salt Lake City County","Combination","","40.148116","-110.288686","OPEN"
"475","West Valley City Fire District","3584 Main Street","West Valley City","UT","41938","West Valley City County","Career","","41.861756","-109.713732","OPEN"
"476","West Valley City Fire District - Station 2","1428 Main Street","West Valley City","UT","80520","West Valley City County","Volunteer","","40.808905","-114.088296","OPEN"
"477","West Valley City Fire District - Station 3","4514 Main Street","West Valley City","UT","17757","West Valley City County","Volunteer","","39.666341","-110.795847","OPEN"
"478","Provo Fire-Rescue","3833 Main Street","Provo","UT","59990","Provo County","Volunteer","","41.731219","-112.606706","OPEN"
"479","Provo Fire Department - Station 2","2273 Main Street","Provo","UT","52718","Provo County","Paid","","41.295772","-110.55909","OPEN"
"480","West Jordan Fire Protection District","8807 Main Street","West Jordan","UT","57687","West Jordan County","Paid","","38.88435","-113.425204","OPEN"
"481","West Jordan Fire District - Station 2","7014 Main Street","West Jordan","UT","80893","West Jordan County","Career","","40.823714","-113.568039","OPEN"
"482","Orem Fire Protection District","1016 Main Street","Orem","UT","39837","Orem County","Career","","40.95032","-112.377618","OPEN"
"483","Orem Volunteer Fire Department - Station 2","5867 Main Street","Orem","UT","23395","Orem County","Volunteer","","40.870889","-113.229602","OPEN"
"484","Orem Fire Department - Station 3","1792 Main Street","Orem","UT","94921","Orem County","Volunteer","","37.129328","-111.335586","OPEN"
"485","Burlington Fire District","6157 Main Street","Burlington","VT","49112","Burlington County","Combination","","43.552075","-71.516671","OPEN"
"486","South Burlington Fire-Rescue","1282 Main Street","South Burlington","VT","87920","South Burlington County","Paid","","43.637747","-72.670173","OPEN"
"487","South Burlington Fire Protection District - Station 2","4953 Main Street","South Burlington","VT","24994","South Burlington County","Career","","43.048565","-72.438995","OPEN"
"488","Rutland Volunteer Fire Department","2458 Main Street","Rutland","VT","19625","Rutland County","Career","","44.396128","-71.875398","OPEN"
"489","Barre Fire-Rescue","1290 Main Street","Barre","VT","16639","Barre County","Career","","43.009302","-71.924941","OPEN"
"490","Barre Fire Department - Station 2","5927 Main Street","Barre","VT","56612","Barre County","Career","","43.806407","-71.628814","OPEN"
"491","Barre Fire Protection District - Station 3","4583 Main Street","Barre","VT","75763","Barre County","Combination","","44.293569","-71.814604","OPEN"
"492","Montpelier Fire Department","6383 Main Street","Montpelier","VT","28600","Montpelier County","Volunteer","","44.148533","-71.666278","OPEN"
"493","Montpelier Volunteer Fire Department - Station 2","4734 Main Street","Montpelier","VT","86866","Montpelier County","Volunteer","","43.972182","-72.308881","OPEN"
"494","Montpelier Fire District - Station 3","7381 Main Street","Montpelier","VT","15924","Montpelier County","Volunteer","","43.368348","-72.604165","OPEN"
"495","Virginia Beach Fire Department","4282 Main Street","Virginia Beach","VA","42478","Virginia Beach County","Career","","38.838547","-82.142309","OPEN"
"496","Virginia Beach Volunteer Fire Department - Station 2","9162 Main Street","Virginia Beach","VA","46706","Virginia Beach County","Career","","37.782584","-80.297044","OPEN"
"497","Norfolk Fire Department","1580 Main Street","Norfolk","VA","27059","Norfolk County","Combination","","37.591672","-76.81023","OPEN"
"498","Norfolk Fire Protection District - Station 2","6838 Main Street","Norfolk","VA","88715","Norfolk County","Paid","","39.040815","-77.308612","OPEN"
"499","Norfolk Fire-Rescue - Station 3","8040 Main Street","Norfolk","VA","44669","Norfolk County","Volunteer","","39.357329","-77.714754","OPEN"
"500","Chesapeake Fire District","1658 Main Street","Chesapeake","VA","95202","Chesapeake County","Career","","38.396944","-79.563928","OPEN"
"501","Chesapeake Fire-Rescue - Station 2","8224 Main Street","Chesapeake","VA","25877","Chesapeake County","Combination","","38.431749","-76.833807","OPEN"
"502","Chesapeake Volunteer Fire Department - Station 3","3063 Main Street","Chesapeake","VA","89894","Chesapeake County","Volunteer","","36.784583","-77.346827","OPEN"
"503","Richmond Fire Protection District","5239 Main Street","Richmond","VA","32625","Richmond County","Volunteer","","36.591156","-79.488702","OPEN"
"504","Richmond Fire Protection District - Station 2","1471 Main Street","Richmond","VA","16798","Richmond County","Combination","","36.846136","-75.98164","OPEN"
"505","Newport News Fire District","1963 Main Street","Newport News","VA","40525","Newport News County","Career","","37.736112","-76.38047","OPEN"
"506","Newport News Fire District - Station 2","7630 Main Street","Newport News","VA","18787","Newport News County","Volunteer","","38.256037","-80.386051","OPEN"
"507","Newport News Fire Department - Station 3","4208 Main Street","Newport News","VA","53725","Newport News County","Combination","","37.029545","-76.509854","OPEN"
"508","Alexandria Volunteer Fire Department","1686 Main Street","Alexandria","VA","76304","Alexandria County","Volunteer","","38.387013","-77.055852","OPEN"
"509","Seattle Volunteer Fire Department","4588 Main Street","Seattle","WA","87995","Seattle County","Volunteer","","47.625289","-123.298673","OPEN"
"510","Seattle Volunteer Fire Department - Station 2","9092 Main Street","Seattle","WA","94614","Seattle County","Combination","","46.373864","-124.739292","OPEN"
"511","Seattle Fire-Rescue - Station 3","2069 Main Street","Seattle","WA","43987","Seattle County","Volunteer","","45.991666","-117.497787","OPEN"
"512","Spokane Fire-Rescue","9093 Main Street","Spokane","WA","57752","Spokane County","Career","","48.643916","-123.847531","OPEN"
"513","Spokane Fire Protection District - Station 2","3310 Main Street","Spokane","WA","83400","Spokane County","Volunteer","","46.193263","-120.260307","OPEN"
"514","Spokane Volunteer Fire Department - Station 3","7128 Main Street","Spokane","WA","18603","Spokane County","Career","","45.872032","-120.402383","OPEN"
"515","Tacoma Fire Protection District","3560 Main Street","Tacoma","WA","94559","Tacoma County","Career","","46.150544","-120.192165","OPEN"
"516","Tacoma Fire District - Station 2","8505 Main Street","Tacoma","WA","90031","Tacoma County","Career","","45.900244","-122.109541","OPEN"
"517","Vancouver Fire-Rescue","2715 Main Street","Vancouver","WA","46347","Vancouver County","Career","","45.972024","-121.96673","OPEN"
"518","Vancouver Fire-Rescue - Station 2","377 Main Street","Vancouver","WA","68733","Vancouver County","Paid","","48.782265","-117.959402","OPEN"
"519","Bellevue Fire-Rescue","8980 Main Street","Bellevue","WA","73113","Bellevue County","Paid","","45.585149","-122.016682","OPEN"
"520","Kent Fire-Rescue","4086 Main Street","Kent","WA","48634","Kent County","Combination","","46.528081","-120.662891","OPEN"
"521","Charleston Fire Department","2352 Main Street","Charleston","WV","84923","Charleston County","Career","","38.956672","-77.769187","OPEN"
"522","Huntington Fire District","1194 Main Street","Huntington","WV","74470","Huntington County","Career","","39.306006","-79.781908","OPEN"
"523","Huntington Fire-Rescue - Station 2","4566 Main Street","Huntington","WV","60825","Huntington County","Paid","","37.453092","-81.164642","OPEN"
"524","Huntington Fire Department - Station 3","6217 Main Street","Huntington","WV","45334","Huntington County","Volunteer","","37.664586","-79.158997","OPEN"
"525","Morgantown Fire Protection District","8660 Main Street","Morgantown","WV","93576","Morgantown County","Combination","","37.303976","-82.127283","OPEN"
"526","Parkersburg Fire Protection District","5340 Main Street","Parkersburg","WV","72984","Parkersburg County","Combination","","38.641451","-82.009905","OPEN"
"527","Parkersburg Fire Department - Station 2","3544 Main Street","Parkersburg","WV","25052","Parkersburg County","Combination","","39.121305","-81.909624","OPEN"
"528","Parkersburg Fire Department - Station 3","6900 Main Street","Parkersburg","WV","59252","Parkersburg County","Volunteer","","37.260554","-79.744804","OPEN"
"529","Wheeling Fire District","169 Main Street","Wheeling","WV","96025","Wheeling County","Combination","","37.551537","-81.010525","OPEN"
"530","Wheeling Volunteer Fire Department - Station 2","8787 Main Street","Wheeling","WV","48877","Wheeling County","Combination","","40.580549","-78.4813","OPEN"
"531","Milwaukee Fire Protection District","468 Main Street","Milwaukee","WI","52199","Milwaukee County","Combination","","46.481823","-92.856172","OPEN"
"532","Madison Fire Department","8624 Main Street","Madison","WI","54252","Madison County","Combination","","47.084058","-86.973526","OPEN"
"533","Madison Fire-Rescue - Station 2","2532 Main Street","Madison","WI","62540","Madison County","Career","","46.543675","-90.049551","OPEN"
"534","Green Bay Fire Protection District","1504 Main Street","Green Bay","WI","30523","Green Bay County","Volunteer","","45.222457","-89.830192","OPEN"
"535","Kenosha Fire Protection District","9708 Main Street","Kenosha","WI","53812","Kenosha County","Paid","","46.682702","-91.855587","OPEN"
"536","Kenosha Fire-Rescue - Station 2","1664 Main Street","Kenosha","WI","39860","Kenosha County","Career","","42.51751","-88.327374","OPEN"
"537","Racine Fire-Rescue","5496 Main Street","Racine","WI","44452","Racine County","Volunteer","","43.850184","-89.222029","OPEN"
"538","Racine Fire Department - Station 2","6009 Main Street","Racine","WI","27402","Racine County","Paid","","43.509668","-92.89062","OPEN"
"539","Racine Volunteer Fire Department - Station 3","3010 Main Street","Racine","WI","30317","Racine County","Career","","45.590142","-87.058564","OPEN"
"540","Cheyenne Fire District","3103 Main Street","Cheyenne","WY","70964","Cheyenne County","Career","","41.27753","-105.739325","OPEN"
"541","Casper Volunteer Fire Department","2326 Main Street","Casper","WY","56120","Casper County","Volunteer","","41.372166","-105.759742","OPEN"
"542","Casper Fire Department - Station 2","1225 Main Street","Casper","WY","65606","Casper County","Paid","","42.169991","-107.75151","OPEN"
"543","Laramie Fire-Rescue","8864 Main Street","Laramie","WY","83067","Laramie County","Volunteer","","42.495848","-109.728345","OPEN"
"544","Laramie Fire Protection District - Station 2","6969 Main Street","Laramie","WY","74297","Laramie County","Combination","","41.227872","-107.289527","OPEN"
"545","Laramie Fire District - Station 3","413 Main Street","Laramie","WY","21185","Laramie County","Volunteer","","42.224327","-107.30246","OPEN"
"546","Gillette Fire-Rescue","9323 Main Street","Gillette","WY","65897","Gillette County","Paid","","41.756421","-109.115635","OPEN"
"547","Gillette Fire Department - Station 2","8510 Main Street","Gillette","WY","94631","Gillette County","Combination","","42.581013","-107.589986","OPEN"
"548","Rock Springs Volunteer Fire Department","8112 Main Street","Rock Springs","WY","51631","Rock Springs County","Paid","","44.752969","-104.72017","OPEN"
"549","Washington Fire Department","7915 Main Street","Washington","DC","26156","Washington County","Volunteer","","38.801645","-77.050575","OPEN"